IRIDIUM 36              
1 24967U 97056C   25020.71393592  .00000887  00000+0  29083-3 0  9990
2 24967  86.3943 234.9014 0002124  92.7262 267.4179 14.37362991431035
IRIDIUM 39              
1 25042U 97069D   25020.76615264  .00001360  00000+0  35375-3 0  9995
2 25042  86.3898 274.3472 0020144  79.7187 280.6287 14.48840460427618
IRIDIUM 38              
1 25043U 97069E   25020.85810182  .00001154  00000+0  37618-3 0  9995
2 25043  86.3963 295.1677 0001465 142.2991 217.8310 14.37871023424785
IRIDIUM 42              
1 25077U 97077A   25020.89333072  .00001137  00000+0  38404-3 0  9998
2 25077  86.3973 301.1427 0001542  95.4973 264.6400 14.36126737420059
IRIDIUM 44              
1 25078U 97077B   25020.75817019  .00000982  00000+0  30567-3 0  9991
2 25078  86.3949 283.5048 0003300 115.9000 244.2539 14.39994263422484
IRIDIUM 45              
1 25104U 97082A   25020.81409396  .00035490  00000+0  15040-2 0  9999
2 25104  86.3620 119.0806 0133360 160.7256 199.9101 15.15160631429674
IRIDIUM 24              
1 25105U 97082B   25020.85060626  .00001398  00000+0  42177-3 0  9995
2 25105  86.3952 142.7773 0010870 195.2319 164.8556 14.41829150421989
IRIDIUM 51              
1 25262U 98018A   25020.77226535  .00043662  00000+0  13405-2 0  9994
2 25262  86.3908 128.1283 0110348  92.1943 269.1945 15.27674215424436
